NORAD_CAT_ID,OBJECT_NAME,OBJECT_TYPE,EPOCH,MEAN_MOTION,ECCENTRICITY,INCLINATION,RA_OF_ASC_NODE,ARG_OF_PERICENTER,MEAN_ANOMALY,BSTAR,MEAN_MOTION_DOT,MEAN_MOTION_DDOT,TLE_LINE0,TLE_LINE1,TLE_LINE2,SEMIMAJOR_AXIS,PERIOD,APOGEE,PERIGEE,DECAYED
50842.0,STARLINK-3302,PAYLOAD,2022-05-30 22:00:00,15.08834906,0.0002305,53.217,248.6744,24.9728,125.7993,-0.0015675,-0.00025146,0.0,0 STARLINK-3302,1 50842U 22001AR  22150.91667824 -.00025146  00000-0 -15675-2 0  9993,2 50842  53.2170 248.6744 0002305  24.9728 125.7993 15.08834906 23393,6917.896,95.438,541.356,538.1659999999998,0.0
50842.0,STARLINK-3302,PAYLOAD,2022-05-31 06:00:02,15.08821428,0.0002152,53.2173,247.1771,28.7432,133.6688,0.0017847,0.00028216,0.0,0 STARLINK-3302,1 50842U 22001AR  22151.25002315  .00028216  00000-0  17847-2 0  9991,2 50842  53.2173 247.1771 0002152  28.7432 133.6688 15.08821428  1305,6917.937,95.439,541.2909999999998,538.313,0.0
50842.0,STARLINK-3302,PAYLOAD,2022-05-31 13:13:57,15.08829196,0.0002286,53.2181,245.8251,26.7173,333.3937,-3.2794e-05,-8.1e-06,0.0,0 STARLINK-3302,1 50842U 22001AR  22151.55135681 -.00000810  00000-0 -32794-4 0  9999,2 50842  53.2181 245.8251 0002286  26.7173 333.3937 15.08829196 23490,6917.913000000001,95.438,541.36,538.197,0.0
50842.0,STARLINK-3302,PAYLOAD,2022-05-31 22:00:00,15.088595000000002,0.0002303,53.2167,244.1855,25.8657,159.6573,-0.0016619,-0.00026655,0.0,0 STARLINK-3302,1 50842U 22001AR  22151.91667824 -.00026655  00000-0 -16619-2 0  9999,2 50842  53.2167 244.1855 0002303  25.8657 159.6573 15.08859500  1306,6917.821,95.436,541.279,538.0930000000002,0.0
50842.0,STARLINK-3302,PAYLOAD,2022-06-01 14:00:01,15.08860156,0.0002387,53.2166,241.194,25.9803,182.7622,-0.001298,-0.00020899,0.0,0 STARLINK-3302,1 50842U 22001AR  22152.58334491 -.00020899  00000-0 -12980-2 0  9995,2 50842  53.2166 241.1940 0002387  25.9803 182.7622 15.08860156 23645,6917.819,95.436,541.335,538.0319999999998,0.0
50842.0,STARLINK-3302,PAYLOAD,2022-06-01 20:00:01,15.08857948,0.0002345,53.216,240.0711,23.938,103.5135,-0.0020448,-0.00032701,0.0,0 STARLINK-3302,1 50842U 22001AR  22152.83334491 -.00032701  00000-0 -20448-2 0  9996,2 50842  53.2160 240.0711 0002345  23.9380 103.5135 15.08857948  1309,6917.826,95.436,541.313,538.068,0.0
50842.0,STARLINK-3302,PAYLOAD,2022-06-03 04:49:22,15.08837247,0.0002499,53.2191,233.932,32.7383,327.3764,0.00010848,1.438e-05,0.0,0 STARLINK-3302,1 50842U 22001AR  22154.20095655  .00001438  00000-0  10848-3 0  9990,2 50842  53.2191 233.9320 0002499  32.7383 327.3764 15.08837247 23893,6917.889,95.438,541.4830000000002,538.025,0.0
50842.0,STARLINK-3302,PAYLOAD,2022-06-03 09:35:32,15.08838274,0.0002588,53.218,233.0386,37.3623,322.7548,-5.4502e-05,-1.156e-05,0.0,0 STARLINK-3302,1 50842U 22001AR  22154.39968106 -.00001156  00000-0 -54502-4 0  9995,2 50842  53.2180 233.0386 0002588  37.3623 322.7548 15.08838274 22632,6917.886,95.438,541.5409999999998,537.96,0.0
50842.0,STARLINK-3302,PAYLOAD,2022-06-04 04:40:10,15.08833493,0.0002471,53.218,229.47,32.4926,327.6217,-1.2695e-06,-3.09e-06,0.0,0 STARLINK-3302,1 50842U 22001AR  22155.19456277 -.00000309  00000-0 -12695-5 0  9992,2 50842  53.2180 229.4700 0002471  32.4926 327.6217 15.08833493 24046,6917.9,95.438,541.475,538.056,0.0
50842.0,STARLINK-3302,PAYLOAD,2022-06-04 11:01:42,15.088357,0.0002479,53.2179,228.2808,32.5159,327.5986,1.5971e-05,-3.4e-07,0.0,0 STARLINK-3302,1 50842U 22001AR  22155.45952136 -.00000034  00000-0  15971-4 0  9999,2 50842  53.2179 228.2808 0002479  32.5159 327.5986 15.08835700 22792,6917.894,95.438,541.4730000000002,538.044,0.0
50842.0,STARLINK-3302,PAYLOAD,2022-06-05 22:00:00,15.08848336,0.0002512,53.2154,221.7397,31.0379,328.4361,-0.0023132,-0.00036925,0.0,0 STARLINK-3302,1 50842U 22001AR  22156.91667824 -.00036925  00000-0 -23132-2 0  9993,2 50842  53.2154 221.7397 0002512  31.0379 328.4361 15.08848336 24307,6917.855,95.437,541.4580000000002,537.982,0.0
50842.0,STARLINK-3302,PAYLOAD,2022-06-06 14:00:01,15.08816199,0.0002719,53.2157,218.7484,30.5847,352.0747,0.0026207,0.00041641,0.0,0 STARLINK-3302,1 50842U 22001AR  22157.58334491  .00041641  00000-0  26207-2 0  9993,2 50842  53.2157 218.7484 0002719  30.5847 352.0747 15.08816199 24400,6917.953,95.439,541.6990000000002,537.937,0.0
50842.0,STARLINK-3302,PAYLOAD,2022-06-06 22:00:00,15.08840547,0.000256,53.2158,217.2503,32.1409,2.1068,-8.1643e-05,-1.588e-05,0.0,0 STARLINK-3302,1 50842U 22001AR  22157.91667824 -.00001588  00000-0 -81643-4 0  9994,2 50842  53.2158 217.2503 0002560  32.1409   2.1068 15.08840547  1300,6917.879,95.438,541.515,537.9730000000002,0.0
50842.0,STARLINK-3302,PAYLOAD,2022-06-07 04:12:30,15.08842337,0.0002601,53.2176,216.0885,40.1925,319.926,-2.1004e-05,-6.23e-06,0.0,0 STARLINK-3302,1 50842U 22001AR  22158.17535682 -.00000623  00000-0 -21004-4 0  9993,2 50842  53.2176 216.0885 0002601  40.1925 319.9260 15.08842337 24495,6917.873000000001,95.437,541.538,537.939,0.0
50842.0,STARLINK-3302,PAYLOAD,2022-06-07 10:34:03,15.08845912,0.0002617,53.2185,214.9006,37.3942,322.7232,1.2019e-06,-2.69e-06,0.0,0 STARLINK-3302,1 50842U 22001AR  22158.44031326 -.00000269  00000-0  12019-5 0  9991,2 50842  53.2185 214.9006 0002617  37.3942 322.7232 15.08845912 23246,6917.861999999999,95.437,541.538,537.9169999999998,0.0
50842.0,STARLINK-3302,PAYLOAD,2022-06-08 10:24:50,15.08837115,0.0002601,53.2166,210.4392,34.8672,325.249,3.1139e-05,2.07e-06,0.0,0 STARLINK-3302,1 50842U 22001AR  22159.43391499  .00000207  00000-0  31139-4 0  9995,2 50842  53.2166 210.4392 0002601  34.8672 325.2490 15.08837115 24688,6917.889,95.438,541.554,537.955,0.0
50842.0,STARLINK-3302,PAYLOAD,2022-06-08 19:57:09,15.0883576,0.0002623,53.2164,208.6544,32.8077,327.3077,4.8028e-06,-2.12e-06,0.0,0 STARLINK-3302,1 50842U 22001AR  22159.83135719 -.00000212  00000-0  48028-5 0  9993,2 50842  53.2164 208.6544 0002623  32.8077 327.3077 15.08835760 23457,6917.893,95.438,541.573,537.944,0.0
50842.0,STARLINK-3302,PAYLOAD,2022-06-09 13:26:23,15.08842229,0.000264,53.2165,205.3841,33.5034,326.6125,5.5095e-06,-2.01e-06,0.0,0 STARLINK-3302,1 50842U 22001AR  22160.55999342 -.00000201  00000-0  55095-5 0  9994,2 50842  53.2165 205.3841 0002640  33.5034 326.6125 15.08842229 23568,6917.874,95.437,541.565,537.9119999999998,0.0
50842.0,STARLINK-3302,PAYLOAD,2022-06-09 19:47:55,15.08842366,0.0002665,53.2166,204.1942,32.9259,327.1898,-1.0643e-05,-4.58e-06,0.0,0 STARLINK-3302,1 50842U 22001AR  22160.82495333 -.00000458  00000-0 -10643-4 0  9999,2 50842  53.2166 204.1942 0002665  32.9259 327.1898 15.08842366 24899,6917.873000000001,95.437,541.582,537.895,0.0
50842.0,STARLINK-3302,PAYLOAD,2022-06-10 03:44:52,15.08826162,0.0002617,53.2171,202.7084,37.3178,322.7995,-2.3334e-05,-6.6e-06,0.0,0 STARLINK-3302,1 50842U 22001AR  22161.15616404 -.00000660  00000-0 -23334-4 0  9996,2 50842  53.2171 202.7084 0002617  37.3178 322.7995 15.08826162 24943,6917.9230000000025,95.438,541.5980000000002,537.977,0.0
50842.0,STARLINK-3302,PAYLOAD,2022-06-10 11:41:48,15.088271,0.0002678,53.2169,201.2212,35.8321,324.285,-1.9045e-05,-5.91e-06,0.0,0 STARLINK-3302,1 50842U 22001AR  22161.48736621 -.00000591  00000-0 -19045-4 0  9993,2 50842  53.2169 201.2212 0002678  35.8321 324.2850 15.08827100 23700,6917.92,95.438,541.637,537.932,0.0
50842.0,STARLINK-3302,PAYLOAD,2022-06-10 19:38:44,15.08828087,0.0002726,53.217,199.7346,37.0937,323.0244,-2.1934e-05,-6.37e-06,0.0,0 STARLINK-3302,1 50842U 22001AR  22161.81856803 -.00000637  00000-0 -21934-4 0  9996,2 50842  53.2170 199.7346 0002726  37.0937 323.0244 15.08828087 23756,6917.917,95.438,541.668,537.896,0.0
50842.0,STARLINK-3302,PAYLOAD,2022-06-11 09:57:12,15.08833372,0.0002759,53.2169,197.058,37.0145,323.1037,-1.6666e-05,-5.54e-06,0.0,0 STARLINK-3302,1 50842U 22001AR  22162.41472788 -.00000554  00000-0 -16666-4 0  9993,2 50842  53.2169 197.0580 0002759  37.0145 323.1037 15.08833372 25130,6917.901,95.438,541.674,537.857,0.0
50842.0,STARLINK-3302,PAYLOAD,2022-06-11 19:29:31,15.08834299,0.0002796,53.217,195.2739,37.5471,322.5716,-1.874e-05,-5.87e-06,0.0,0 STARLINK-3302,1 50842U 22001AR  22162.81216918 -.00000587  00000-0 -18740-4 0  9999,2 50842  53.2170 195.2739 0002796  37.5471 322.5716 15.08834299 23905,6917.898,95.438,541.697,537.8290000000002,0.0
50842.0,STARLINK-3302,PAYLOAD,2022-06-12 01:51:03,15.08847724,0.0002707,53.2165,194.0839,33.1893,326.9268,-0.00016105,-2.851e-05,0.0,0 STARLINK-3302,1 50842U 22001AR  22163.07712399 -.00002851  00000-0 -16105-3 0  9990,2 50842  53.2165 194.0839 0002707  33.1893 326.9268 15.08847724 25234,6917.857,95.437,541.594,537.849,0.0
50842.0,STARLINK-3302,PAYLOAD,2022-06-12 09:47:59,15.0883267,0.0002722,53.2166,192.5971,36.3808,323.7369,8.972e-05,1.139e-05,0.0,0 STARLINK-3302,1 50842U 22001AR  22163.40832906  .00001139  00000-0  89720-4 0  9994,2 50842  53.2166 192.5971 0002722  36.3808 323.7369 15.08832670 25289,6917.903,95.438,541.651,537.885,0.0
50842.0,STARLINK-3302,PAYLOAD,2022-06-12 19:20:18,15.08834985,0.0002758,53.2166,190.8129,37.4429,322.6755,8.7369e-05,1.102e-05,0.0,0 STARLINK-3302,1 50842U 22001AR  22163.80576961  .00001102  00000-0  87369-4 0  9991,2 50842  53.2166 190.8129 0002758  37.4429 322.6755 15.08834985 24057,6917.896,95.438,541.669,537.8530000000002,0.0
50842.0,STARLINK-3302,PAYLOAD,2022-06-13 08:03:23,15.08840107,0.0002767,53.2165,188.43400000000003,38.3879,321.731,0.00010158,1.329e-05,0.0,0 STARLINK-3302,1 50842U 22001AR  22164.33568709  .00001329  00000-0  10158-3 0  9993,2 50842  53.2165 188.4340 0002767  38.3879 321.7310 15.08840107 24132,6917.88,95.438,541.659,537.831,0.0
50842.0,STARLINK-3302,PAYLOAD,2022-06-13 19:11:05,15.08843714,0.0002822,53.2165,186.3527,39.1072,321.0124,9.879e-05,1.284e-05,0.0,0 STARLINK-3302,1 50842U 22001AR  22164.79936439  .00001284  00000-0  98790-4 0  9991,2 50842  53.2165 186.3527 0002822  39.1072 321.0124 15.08843714 24203,6917.869000000002,95.437,541.686,537.7819999999998,0.0
